{"type": "FeatureCollection", "features": [ {"type": "Feature", "properties": {"norad_id": 66485, "name": "STARLINK-34774", "group": "last-30-days", "lat": -7.272691821702339, "lon": 122.60012789309314, "alt_km": 444.04962722520213, "timestamp": "2025-12-11T20:41:13.846441+00:00", "meta": {"OBJECT_NAME": "STARLINK-34774", "OBJECT_ID": "2025-263A", "EPOCH": "2025-12-11T14:00:01.999872", "MEAN_MOTION": 15.40769534, "ECCENTRICITY": 0.00019928, "INCLINATION": 43.0008, "RA_OF_ASC_NODE": 132.0773, "ARG_OF_PERICENTER": 289.8269, "MEAN_ANOMALY": 312.3679, "EPHEMERIS_TYPE": 0, "CLASSIFICATION_TYPE": "U", "NORAD_CAT_ID": 66485, "ELEMENT_SET_NO": 999, "REV_AT_EPOCH": 545, "BSTAR": -0.0041640948, "MEAN_MOTION_DOT": -0.00170818, "MEAN_MOTION_DDOT": 0}, "tle": {"line1": "1 66485U 25263A   25345.58335648 -.00170818  00000+0 -41641-2 0  9992", "line2": "2 66485  43.0008 132.0773 0001992 289.8269 312.3679 15.40769534  5453"}}, "geometry": {"type": "Point", "coordinates": [122.60012789309314, -7.272691821702339]}}, {"type": "Feature", "properties": {"norad_id": 66486, "name": "STARLINK-34844", "group": "last-30-days", "lat": 35.40749001976712, "lon": -179.98210991250116, "alt_km": 410.2521301565239, "timestamp": "2025-12-11T20:41:13.846453+00:00", "meta": {"OBJECT_NAME": "STARLINK-34844", "OBJECT_ID": "2025-263B", "EPOCH": "2025-12-11T14:00:01.999872", "MEAN_MOTION": 15.50627361, "ECCENTRICITY": 0.00013185, "INCLINATION": 43.0003, "RA_OF_ASC_NODE": 131.9326, "ARG_OF_PERICENTER": 272.2051, "MEAN_ANOMALY": 28.9395, "EPHEMERIS_TYPE": 0, "CLASSIFICATION_TYPE": "U", "NORAD_CAT_ID": 66486, "ELEMENT_SET_NO": 999, "REV_AT_EPOCH": 540, "BSTAR": -0.0029059336, "MEAN_MOTION_DOT": -0.00167509, "MEAN_MOTION_DDOT": 0}, "tle": {"line1": "1 66486U 25263B   25345.58335648 -.00167509  00000+0 -29059-2 0  9995", "line2": "2 66486  43.0003 131.9326 0001318 272.2051  28.9395 15.50627361  5400"}}, "geometry": {"type": "Point", "coordinates": [-179.98210991250116, 35.40749001976712]}}, {"type": "Feature", "properties": {"norad_id": 66487, "name": "STARLINK-34733", "group": "last-30-days", "lat": 34.77253545950204, "lon": 178.47141381234272, "alt_km": 418.68443841571207, "timestamp": "2025-12-11T20:41:13.846463+00:00", "meta": {"OBJECT_NAME": "STARLINK-34733", "OBJECT_ID": "2025-263C", "EPOCH": "2025-12-11T14:00:01.999872", "MEAN_MOTION": 15.48981186, "ECCENTRICITY": 0.00014407, "INCLINATION": 43.0004, "RA_OF_ASC_NODE": 131.9304, "ARG_OF_PERICENTER": 272.311, "MEAN_ANOMALY": 29.6701, "EPHEMERIS_TYPE": 0, "CLASSIFICATION_TYPE": "U", "NORAD_CAT_ID": 66487, "ELEMENT_SET_NO": 999, "REV_AT_EPOCH": 545, "BSTAR": -0.042556684, "MEAN_MOTION_DOT": -0.02094616, "MEAN_MOTION_DDOT": 0}, "tle": {"line1": "1 66487U 25263C   25345.58335648 -.02094616  00000+0 -42557-1 0  9993", "line2": "2 66487  43.0004 131.9304 0001440 272.3110  29.6701 15.48981186  5450"}}, "geometry": {"type": "Point", "coordinates": [178.47141381234272, 34.77253545950204]}}, {"type": "Feature", "properties": {"norad_id": 66488, "name": "STARLINK-35515", "group": "last-30-days", "lat": 37.02083533728082, "lon": -175.6820698716163, "alt_km": 410.04614345747177, "timestamp": "2025-12-11T20:41:13.846475+00:00", "meta": {"OBJECT_NAME": "STARLINK-35515", "OBJECT_ID": "2025-263D", "EPOCH": "2025-12-11T14:00:01.999872", "MEAN_MOTION": 15.50617536, "ECCENTRICITY": 0.00013101, "INCLINATION": 43.0004, "RA_OF_ASC_NODE": 131.9236, "ARG_OF_PERICENTER": 268.8663, "MEAN_ANOMALY": 36.1115, "EPHEMERIS_TYPE": 0, "CLASSIFICATION_TYPE": "U", "NORAD_CAT_ID": 66488, "ELEMENT_SET_NO": 999, "REV_AT_EPOCH": 545, "BSTAR": -0.0025545831, "MEAN_MOTION_DOT": -0.00147617, "MEAN_MOTION_DDOT": 0}, "tle": {"line1": "1 66488U 25263D   25345.58335648 -.00147617  00000+0 -25546-2 0  9992", "line2": "2 66488  43.0004 131.9236 0001310 268.8663  36.1115 15.50617536  5454"}}, "geometry": {"type": "Point", "coordinates": [-175.6820698716163, 37.02083533728082]}}, {"type": "Feature", "properties": {"norad_id": 66489, "name": "STARLINK-35696", "group": "last-30-days", "lat": 37.767147734948885, "lon": -173.467571207887, "alt_km": 410.1082482718948, "timestamp": "2025-12-11T20:41:13.846486+00:00", "meta": {"OBJECT_NAME": "STARLINK-35696", "OBJECT_ID": "2025-263E", "EPOCH": "2025-12-11T14:00:01.999872", "MEAN_MOTION": 15.50615456, "ECCENTRICITY": 0.00014722, "INCLINATION": 43.0003, "RA_OF_ASC_NODE": 131.918, "ARG_OF_PERICENTER": 254.3189, "MEAN_ANOMALY": 52.5734, "EPHEMERIS_TYPE": 0, "CLASSIFICATION_TYPE": "U", "NORAD_CAT_ID": 66489, "ELEMENT_SET_NO": 999, "REV_AT_EPOCH": 545, "BSTAR": -0.0023097936, "MEAN_MOTION_DOT": -0.00133731, "MEAN_MOTION_DDOT": 0}, "tle": {"line1": "1 66489U 25263E   25345.58335648 -.00133731  00000+0 -23098-2 0  9995", "line2": "2 66489  43.0003 131.9180 0001472 254.3189  52.5734 15.50615456  5452"}}, "geometry": {"type": "Point", "coordinates": [-173.467571207887, 37.767147734948885]}}, {"type": "Feature", "properties": {"norad_id": 66490, "name": "STARLINK-35693", "group": "last-30-days", "lat": 24.878278703448107, "lon": 160.1948302603964, "alt_km": 435.698742561538, "timestamp": "2025-12-11T20:41:13.846496+00:00", "meta": {"OBJECT_NAME": "STARLINK-35693", "OBJECT_ID": "2025-263F", "EPOCH": "2025-12-11T14:00:01.999872", "MEAN_MOTION": 15.4341361, "ECCENTRICITY": 0.00013664, "INCLINATION": 43.0011, "RA_OF_ASC_NODE": 131.9635, "ARG_OF_PERICENTER": 273.139, "MEAN_ANOMALY": 15.674, "EPHEMERIS_TYPE": 0, "CLASSIFICATION_TYPE": "U", "NORAD_CAT_ID": 66490, "ELEMENT_SET_NO": 999, "REV_AT_EPOCH": 545, "BSTAR": -0.04273917, "MEAN_MOTION_DOT": -0.01767203, "MEAN_MOTION_DDOT": 0}, "tle": {"line1": "1 66490U 25263F   25345.58335648 -.01767203  00000+0 -42739-1 0  9997", "line2": "2 66490  43.0011 131.9635 0001366 273.1390  15.6740 15.43413610  5450"}}, "geometry": {"type": "Point", "coordinates": [160.1948302603964, 24.878278703448107]}}, {"type": "Feature", "properties": {"norad_id": 66491, "name": "STARLINK-35663", "group": "last-30-days", "lat": 39.71826389172803, "lon": -166.66411689292894, "alt_km": 409.21137593195454, "timestamp": "2025-12-11T20:41:13.846507+00:00", "meta": {"OBJECT_NAME": "STARLINK-35663", "OBJECT_ID": "2025-263G", "EPOCH": "2025-12-11T14:00:01.999872", "MEAN_MOTION": 15.50467701, "ECCENTRICITY": 0.00013998, "INCLINATION": 43.0004, "RA_OF_ASC_NODE": 131.9033, "ARG_OF_PERICENTER": 321.135, "MEAN_ANOMALY": 351.4949, "EPHEMERIS_TYPE": 0, "CLASSIFICATION_TYPE": "U", "NORAD_CAT_ID": 66491, "ELEMENT_SET_NO": 999, "REV_AT_EPOCH": 545, "BSTAR": 0.0010216508, "MEAN_MOTION_DOT": 0.00059815, "MEAN_MOTION_DDOT": 0}, "tle": {"line1": "1 66491U 25263G   25345.58335648  .00059815  00000+0  10217-2 0  9995", "line2": "2 66491  43.0004 131.9033 0001399 321.1350 351.4949 15.50467701  5451"}}, "geometry": {"type": "Point", "coordinates": [-166.66411689292894, 39.71826389172803]}}, {"type": "Feature", "properties": {"norad_id": 66492, "name": "STARLINK-35673", "group": "last-30-days", "lat": 9.594469987513747, "lon": 140.858848295184, "alt_km": 442.6436825300916, "timestamp": "2025-12-11T20:41:13.846519+00:00", "meta": {"OBJECT_NAME": "STARLINK-35673", "OBJECT_ID": "2025-263H", "EPOCH": "2025-12-11T14:00:01.999872", "MEAN_MOTION": 15.40660283, "ECCENTRICITY": 0.00014827, "INCLINATION": 43.0004, "RA_OF_ASC_NODE": 132.0135, "ARG_OF_PERICENTER": 276.9576, "MEAN_ANOMALY": 350.1409, "EPHEMERIS_TYPE": 0, "CLASSIFICATION_TYPE": "U", "NORAD_CAT_ID": 66492, "ELEMENT_SET_NO": 999, "REV_AT_EPOCH": 545, "BSTAR": 0.00074648988, "MEAN_MOTION_DOT": 0.00030965, "MEAN_MOTION_DDOT": 0}, "tle": {"line1": "1 66492U 25263H   25345.58335648  .00030965  00000+0  74649-3 0  9991", "line2": "2 66492  43.0004 132.0135 0001482 276.9576 350.1409 15.40660283  5453"}}, "geometry": {"type": "Point", "coordinates": [140.858848295184, 9.594469987513747]}}, {"type": "Feature", "properties": {"norad_id": 66493, "name": "STARLINK-35597", "group": "last-30-days", "lat": 40.83088095162506, "lon": -161.71769321271816, "alt_km": 409.58155647076273, "timestamp": "2025-12-11T20:41:13.846531+00:00", "meta": {"OBJECT_NAME": "STARLINK-35597", "OBJECT_ID": "2025-263J", "EPOCH": "2025-12-11T14:00:01.999872", "MEAN_MOTION": 15.50623803, "ECCENTRICITY": 0.00013786, "INCLINATION": 43.0003, "RA_OF_ASC_NODE": 131.8936, "ARG_OF_PERICENTER": 265.6363, "MEAN_ANOMALY": 50.8461, "EPHEMERIS_TYPE": 0, "CLASSIFICATION_TYPE": "U", "NORAD_CAT_ID": 66493, "ELEMENT_SET_NO": 999, "REV_AT_EPOCH": 545, "BSTAR": -0.0027844014, "MEAN_MOTION_DOT": -0.00160638, "MEAN_MOTION_DDOT": 0}, "tle": {"line1": "1 66493U 25263J   25345.58335648 -.00160638  00000+0 -27844-2 0  9999", "line2": "2 66493  43.0003 131.8936 0001378 265.6363  50.8461 15.50623803  5452"}}, "geometry": {"type": "Point", "coordinates": [-161.71769321271816, 40.83088095162506]}}, {"type": "Feature", "properties": {"norad_id": 66494, "name": "STARLINK-35689", "group": "last-30-days", "lat": 39.13311448143809, "lon": -168.8964205435528, "alt_km": 409.8844347631957, "timestamp": "2025-12-11T20:41:13.846541+00:00", "meta": {"OBJECT_NAME": "STARLINK-35689", "OBJECT_ID": "2025-263K", "EPOCH": "2025-12-11T14:00:01.999872", "MEAN_MOTION": 15.50613785, "ECCENTRICITY": 0.00015716, "INCLINATION": 43.0003, "RA_OF_ASC_NODE": 131.9086, "ARG_OF_PERICENTER": 252.0455, "MEAN_ANOMALY": 58.6666, "EPHEMERIS_TYPE": 0, "CLASSIFICATION_TYPE": "U", "NORAD_CAT_ID": 66494, "ELEMENT_SET_NO": 999, "REV_AT_EPOCH": 545, "BSTAR": -0.0012978689, "MEAN_MOTION_DOT": -0.00075842, "MEAN_MOTION_DDOT": 0}, "tle": {"line1": "1 66494U 25263K   25345.58335648 -.00075842  00000+0 -12979-2 0  9995", "line2": "2 66494  43.0003 131.9086 0001571 252.0455  58.6666 15.50613785  5458"}}, "geometry": {"type": "Point", "coordinates": [-168.8964205435528, 39.13311448143809]}}]}